{
    "links": {
        "self": "http://www.neowsapp.com/rest/v1/neo/3426634?api_key=iIulBulltgU6a56xZRHN4H3l9WmuAYTsLGpBGhQ2"
    },
    "id": "3426634",
    "neo_reference_id": "3426634",
    "name": "(2008 RT)",
    "designation": "2008 RT",
    "nasa_jpl_url": "http://ssd.jpl.nasa.gov/sbdb.cgi?sstr=3426634",
    "absolute_magnitude_h": 19.8,
    "estimated_diameter": {
        "kilometers": {
            "estimated_diameter_min": 0.2914439045,
            "estimated_diameter_max": 0.6516883822
        },
        "meters": {
            "estimated_diameter_min": 291.4439045349,
            "estimated_diameter_max": 651.6883821679
        },
        "miles": {
            "estimated_diameter_min": 0.1810947904,
            "estimated_diameter_max": 0.4049402617
        },
        "feet": {
            "estimated_diameter_min": 956.1808197541,
            "estimated_diameter_max": 2138.0853117517
        }
    },
    "is_potentially_hazardous_asteroid": false,
    "close_approach_data": [
        {
            "close_approach_date": "1903-09-12",
            "close_approach_date_full": "1903-Sep-12 17:59",
            "epoch_date_close_approach": -2092370460000,
            "relative_velocity": {
                "kilometers_per_second": "21.5958867943",
                "kilometers_per_hour": "77745.1924595351",
                "miles_per_hour": "48307.8391702039"
            },
            "miss_distance": {
                "astronomical": "0.4668907697",
                "lunar": "181.6205094133",
                "kilometers": "69845864.669780539",
                "miles": "43400207.8114238782"
            },
            "orbiting_body": "Earth"
        },
        {
            "close_approach_date": "1934-10-20",
            "close_approach_date_full": "1934-Oct-20 16:58",
            "epoch_date_close_approach": -1110783720000,
            "relative_velocity": {
                "kilometers_per_second": "14.056502018",
                "kilometers_per_hour": "50603.4072647719",
                "miles_per_hour": "31442.9893640468"
            },
            "miss_distance": {
                "astronomical": "0.115351006",
                "lunar": "44.871541334",
                "kilometers": "17256264.79995722",
                "miles": "10722545.735640836"
            },
            "orbiting_body": "Earth"
        },
        {
            "close_approach_date": "2004-11-07",
            "close_approach_date_full": "2004-Nov-07 04:55",
            "epoch_date_close_approach": 1099803300000,
            "relative_velocity": {
                "kilometers_per_second": "16.6884179847",
                "kilometers_per_hour": "60078.3047450834",
                "miles_per_hour": "37330.322190077"
            },
            "miss_distance": {
                "astronomical": "0.3682664586",
                "lunar": "143.2556523954",
                "kilometers": "55091877.799003182",
                "miles": "34232505.4819286316"
            },
            "orbiting_body": "Earth"
        },
        {
            "close_approach_date": "2008-09-30",
            "close_approach_date_full": "2008-Sep-30 01:55",
            "epoch_date_close_approach": 1222739700000,
            "relative_velocity": {
                "kilometers_per_second": "15.8006372516",
                "kilometers_per_hour": "56882.2941058619",
                "miles_per_hour": "35344.4454681673"
            },
            "miss_distance": {
                "astronomical": "0.2183339737",
                "lunar": "84.9319157693",
                "kilometers": "32662297.414156019",
                "miles": "20295410.5024663022"
            },
            "orbiting_body": "Earth"
        },
        {
            "close_approach_date": "2071-10-30",
            "close_approach_date_full": "2071-Oct-30 06:28",
            "epoch_date_close_approach": 3213412080000,
            "relative_velocity": {
                "kilometers_per_second": "14.8648798131",
                "kilometers_per_hour": "53513.5673272572",
                "miles_per_hour": "33251.2496539838"
            },
            "miss_distance": {
                "astronomical": "0.3916761079",
                "lunar": "152.3620059731",
                "kilometers": "58593911.471730173",
                "miles": "36408568.3007874674"
            },
            "orbiting_body": "Earth"
        }
    ],
    "orbital_data": {
        "orbit_id": "29",
        "orbit_determination_date": "2017-04-06 09:03:02",
        "first_observation_date": "2008-09-01",
        "last_observation_date": "2008-11-23",
        "data_arc_in_days": 83,
        "observations_used": 124,
        "orbit_uncertainty": "6",
        "minimum_orbit_intersection": ".0954242",
        "jupiter_tisserand_invariant": "3.155",
        "epoch_osculation": "2459000.5",
        "eccentricity": ".5644405308893534",
        "semi_major_axis": "2.488769233824236",
        "inclination": "21.22356050223884",
        "ascending_node_longitude": "17.48057610613455",
        "orbital_period": "1434.086577339537",
        "perihelion_distance": "1.084007006223395",
        "perihelion_argument": "13.39625889126643",
        "aphelion_distance": "3.893531461425077",
        "perihelion_time": "2459043.523318758702",
        "mean_anomaly": "349.1998188966623",
        "mean_motion": ".2510308691877294",
        "equinox": "J2000",
        "orbit_class": {
            "orbit_class_type": "AMO",
            "orbit_class_description": "Near-Earth asteroid orbits similar to that of 1221 Amor",
            "orbit_class_range": "1.017 AU < q (perihelion) < 1.3 AU"
        }
    },
    "is_sentry_object": false
}